[{"OBJECT_NAME":"JILIN-1 07","OBJECT_ID":"2018-008E","EPOCH":"2026-03-09T22:24:26.445888","MEAN_MOTION":15.32987507,"ECCENTRICITY":0.00101791,"INCLINATION":97.1876,"RA_OF_ASC_NODE":91.5817,"ARG_OF_PERICENTER":62.7832,"MEAN_ANOMALY":297.4447,"EPHEMERIS_TYPE":0,"CLASSIFICATION_TYPE":"U","NORAD_CAT_ID":43159,"ELEMENT_SET_NO":999,"REV_AT_EPOCH":44978,"BSTAR":0.00036439521,"MEAN_MOTION_DOT":0.00011559,"MEAN_MOTION_DDOT":0},{"OBJECT_NAME":"STARLINK-32856","OBJECT_ID":"2025-018P","EPOCH":"2026-03-09T22:02:38.518368","MEAN_MOTION":15.30211703,"ECCENTRICITY":0.00010493,"INCLINATION":53.1608,"RA_OF_ASC_NODE":308.5191,"ARG_OF_PERICENTER":77.5771,"MEAN_ANOMALY":282.5347,"EPHEMERIS_TYPE":0,"CLASSIFICATION_TYPE":"U","NORAD_CAT_ID":62819,"ELEMENT_SET_NO":999,"REV_AT_EPOCH":6321,"BSTAR":0.0012221242,"MEAN_MOTION_DOT":0.00036025,"MEAN_MOTION_DDOT":0}]
